STARLINK-31049          
1 58543U 23192N   25279.09431560  .00001030  00000+0  46929-4 0  9992
2 58543  53.1596  60.9928 0001357  74.7185 285.3966 15.30183236102316
STARLINK-31048          
1 58544U 23192P   25279.12059720 -.00003341  00000+0 -10083-3 0  9991
2 58544  53.1621  60.4095 0001273  87.1560 272.9587 15.30168008102320
STARLINK-31057          
1 58545U 23192Q   25279.09748234  .00002675  00000+0  10240-3 0  9995
2 58545  53.1584  61.0124 0001098  76.1650 283.9473 15.30201154102317
STARLINK-31050          
1 58546U 23192R   25279.10064750 -.00000629  00000+0 -91379-5 0  9995
2 58546  53.1608  61.0326 0000404 100.2180 259.8867 15.30190506102313
STARLINK-31063          
1 58547U 23192S   25279.50200730  .00000150  00000+0  17199-4 0  9994
2 58547  53.1602  48.5903 0001176  84.1287 275.9848 15.30190058102527
STARLINK-31016          
1 58548U 23192T   25278.86246528  .00005628  00000+0  20185-3 0  9991
2 58548  53.1602  61.6395 0001030  92.6367 267.4752 15.30223824102282
STARLINK-31053          
1 58549U 23192U   25279.10381682  .00000189  00000+0  18519-4 0  9997
2 58549  53.1608  61.0529 0001030  82.5475 277.5643 15.30190724102317
STARLINK-31056          
1 58550U 23192V   25279.12691672  .00007082  00000+0  25106-3 0  9992
2 58550  53.1664  60.4927 0001278  73.8428 286.2713 15.30193728102324
STARLINK-30999          
1 58551U 23192W   25279.08698882 -.00000552  00000+0 -64961-5 0  9999
2 58551  53.1606  50.8921 0001335  82.6303 277.4849 15.30198184102459
STARLINK-31046          
1 58552U 23192X   25279.11120853 -.00000362  00000+0 -10463-6 0  9990
2 58552  53.1618  61.0969 0001311  81.6113 278.5036 15.30186413102318
STARLINK-31044          
1 58589U 23200A   25279.29579414  .00002098  00000+0  17029-3 0  9998
2 58589  43.0053 288.8114 0001250 263.8814  96.1886 15.02538341100375
STARLINK-31062          
1 58590U 23200B   25279.31390645  .00000433  00000+0  47154-4 0  9994
2 58590  43.0031 290.6713 0001217 266.5796  93.4907 15.02537106100351
STARLINK-31096          
1 58592U 23200D   25279.34154402  .00000134  00000+0  24959-4 0  9994
2 58592  43.0038 290.0256 0001243 276.9717  83.0983 15.02532356100365
STARLINK-31094          
1 58593U 23200E   25279.08648604  .00001361  00000+0  11584-3 0  9990
2 58593  43.0037 290.6979 0001083 281.2837  78.7884 15.02530899100335
STARLINK-31075          
1 58594U 23200F   25279.33904834  .00000340  00000+0  40256-4 0  9994
2 58594  43.0092 289.1445 0001991 278.8783  81.1834 15.02560936100370
STARLINK-30857          
1 58595U 23200G   25279.34240633  .00000383  00000+0  43435-4 0  9995
2 58595  43.0044 289.1779 0001333 269.4715  90.5975 15.02537020100377
STARLINK-31059          
1 58596U 23200H   25279.06776558 -.00002910  00000+0 -96275-4 0  9995
2 58596  43.0030 165.3480 0001422 273.6208  86.4481 15.27569161101803
