[{"OBJECT_NAME":"STARLINK-31049","OBJECT_ID":"2023-192N","EPOCH":"2025-10-06T02:15:48.867840","MEAN_MOTION":15.30183236,"ECCENTRICITY":0.0001357,"INCLINATION":53.1596,"RA_OF_ASC_NODE":60.9928,"ARG_OF_PERICENTER":74.7185,"MEAN_ANOMALY":285.3966,"EPHEMERIS_TYPE":0,"CLASSIFICATION_TYPE":"U","NORAD_CAT_ID":58543,"ELEMENT_SET_NO":999,"REV_AT_EPOCH":10231,"BSTAR":4.6929e-5,"MEAN_MOTION_DOT":1.03e-5,"MEAN_MOTION_DDOT":0},{"OBJECT_NAME":"STARLINK-31048","OBJECT_ID":"2023-192P","EPOCH":"2025-10-06T02:53:39.598080","MEAN_MOTION":15.30168008,"ECCENTRICITY":0.0001273,"INCLINATION":53.1621,"RA_OF_ASC_NODE":60.4095,"ARG_OF_PERICENTER":87.156,"MEAN_ANOMALY":272.9587,"EPHEMERIS_TYPE":0,"CLASSIFICATION_TYPE":"U","NORAD_CAT_ID":58544,"ELEMENT_SET_NO":999,"REV_AT_EPOCH":10232,"BSTAR":-0.00010083,"MEAN_MOTION_DOT":-3.341e-5,"MEAN_MOTION_DDOT":0},{"OBJECT_NAME":"STARLINK-31057","OBJECT_ID":"2023-192Q","EPOCH":"2025-10-06T02:20:22.474176","MEAN_MOTION":15.30201154,"ECCENTRICITY":0.0001098,"INCLINATION":53.1584,"RA_OF_ASC_NODE":61.0124,"ARG_OF_PERICENTER":76.165,"MEAN_ANOMALY":283.9473,"EPHEMERIS_TYPE":0,"CLASSIFICATION_TYPE":"U","NORAD_CAT_ID":58545,"ELEMENT_SET_NO":999,"REV_AT_EPOCH":10231,"BSTAR":0.0001024,"MEAN_MOTION_DOT":2.675e-5,"MEAN_MOTION_DDOT":0},{"OBJECT_NAME":"STARLINK-31050","OBJECT_ID":"2023-192R","EPOCH":"2025-10-06T02:24:55.944000","MEAN_MOTION":15.30190506,"ECCENTRICITY":4.04e-5,"INCLINATION":53.1608,"RA_OF_ASC_NODE":61.0326,"ARG_OF_PERICENTER":100.218,"MEAN_ANOMALY":259.8867,"EPHEMERIS_TYPE":0,"CLASSIFICATION_TYPE":"U","NORAD_CAT_ID":58546,"ELEMENT_SET_NO":999,"REV_AT_EPOCH":10231,"BSTAR":-9.1379e-6,"MEAN_MOTION_DOT":-6.29e-6,"MEAN_MOTION_DDOT":0},{"OBJECT_NAME":"STARLINK-31063","OBJECT_ID":"2023-192S","EPOCH":"2025-10-06T12:02:53.430720","MEAN_MOTION":15.30190058,"ECCENTRICITY":0.0001176,"INCLINATION":53.1602,"RA_OF_ASC_NODE":48.5903,"ARG_OF_PERICENTER":84.1287,"MEAN_ANOMALY":275.9848,"EPHEMERIS_TYPE":0,"CLASSIFICATION_TYPE":"U","NORAD_CAT_ID":58547,"ELEMENT_SET_NO":999,"REV_AT_EPOCH":10252,"BSTAR":1.7199e-5,"MEAN_MOTION_DOT":1.5e-6,"MEAN_MOTION_DDOT":0},{"OBJECT_NAME":"STARLINK-31016","OBJECT_ID":"2023-192T","EPOCH":"2025-10-05T20:41:57.000192","MEAN_MOTION":15.30223824,"ECCENTRICITY":0.000103,"INCLINATION":53.1602,"RA_OF_ASC_NODE":61.6395,"ARG_OF_PERICENTER":92.6367,"MEAN_ANOMALY":267.4752,"EPHEMERIS_TYPE":0,"CLASSIFICATION_TYPE":"U","NORAD_CAT_ID":58548,"ELEMENT_SET_NO":999,"REV_AT_EPOCH":10228,"BSTAR":0.00020185,"MEAN_MOTION_DOT":5.628e-5,"MEAN_MOTION_DDOT":0},{"OBJECT_NAME":"STARLINK-31053","OBJECT_ID":"2023-192U","EPOCH":"2025-10-06T02:29:29.773248","MEAN_MOTION":15.30190724,"ECCENTRICITY":0.000103,"INCLINATION":53.1608,"RA_OF_ASC_NODE":61.0529,"ARG_OF_PERICENTER":82.5475,"MEAN_ANOMALY":277.5643,"EPHEMERIS_TYPE":0,"CLASSIFICATION_TYPE":"U","NORAD_CAT_ID":58549,"ELEMENT_SET_NO":999,"REV_AT_EPOCH":10231,"BSTAR":1.8519e-5,"MEAN_MOTION_DOT":1.89e-6,"MEAN_MOTION_DDOT":0},{"OBJECT_NAME":"STARLINK-31056","OBJECT_ID":"2023-192V","EPOCH":"2025-10-06T03:02:45.604608","MEAN_MOTION":15.30193728,"ECCENTRICITY":0.0001278,"INCLINATION":53.1664,"RA_OF_ASC_NODE":60.4927,"ARG_OF_PERICENTER":73.8428,"MEAN_ANOMALY":286.2713,"EPHEMERIS_TYPE":0,"CLASSIFICATION_TYPE":"U","NORAD_CAT_ID":58550,"ELEMENT_SET_NO":999,"REV_AT_EPOCH":10232,"BSTAR":0.00025106,"MEAN_MOTION_DOT":7.082e-5,"MEAN_MOTION_DDOT":0},{"OBJECT_NAME":"STARLINK-30999","OBJECT_ID":"2023-192W","EPOCH":"2025-10-06T02:05:15.834048","MEAN_MOTION":15.30198184,"ECCENTRICITY":0.0001335,"INCLINATION":53.1606,"RA_OF_ASC_NODE":50.8921,"ARG_OF_PERICENTER":82.6303,"MEAN_ANOMALY":277.4849,"EPHEMERIS_TYPE":0,"CLASSIFICATION_TYPE":"U","NORAD_CAT_ID":58551,"ELEMENT_SET_NO":999,"REV_AT_EPOCH":10245,"BSTAR":-6.4961e-6,"MEAN_MOTION_DOT":-5.52e-6,"MEAN_MOTION_DDOT":0},{"OBJECT_NAME":"STARLINK-31046","OBJECT_ID":"2023-192X","EPOCH":"2025-10-06T02:40:08.416992","MEAN_MOTION":15.30186413,"ECCENTRICITY":0.0001311,"INCLINATION":53.1618,"RA_OF_ASC_NODE":61.0969,"ARG_OF_PERICENTER":81.6113,"MEAN_ANOMALY":278.5036,"EPHEMERIS_TYPE":0,"CLASSIFICATION_TYPE":"U","NORAD_CAT_ID":58552,"ELEMENT_SET_NO":999,"REV_AT_EPOCH":10231,"BSTAR":-1.0463e-7,"MEAN_MOTION_DOT":-3.62e-6,"MEAN_MOTION_DDOT":0},{"OBJECT_NAME":"STARLINK-31044","OBJECT_ID":"2023-200A","EPOCH":"2025-10-06T07:05:56.613696","MEAN_MOTION":15.02538341,"ECCENTRICITY":0.000125,"INCLINATION":43.0053,"RA_OF_ASC_NODE":288.8114,"ARG_OF_PERICENTER":263.8814,"MEAN_ANOMALY":96.1886,"EPHEMERIS_TYPE":0,"CLASSIFICATION_TYPE":"U","NORAD_CAT_ID":58589,"ELEMENT_SET_NO":999,"REV_AT_EPOCH":10037,"BSTAR":0.00017029,"MEAN_MOTION_DOT":2.098e-5,"MEAN_MOTION_DDOT":0},{"OBJECT_NAME":"STARLINK-31062","OBJECT_ID":"2023-200B","EPOCH":"2025-10-06T07:32:01.517280","MEAN_MOTION":15.02537106,"ECCENTRICITY":0.0001217,"INCLINATION":43.0031,"RA_OF_ASC_NODE":290.6713,"ARG_OF_PERICENTER":266.5796,"MEAN_ANOMALY":93.4907,"EPHEMERIS_TYPE":0,"CLASSIFICATION_TYPE":"U","NORAD_CAT_ID":58590,"ELEMENT_SET_NO":999,"REV_AT_EPOCH":10035,"BSTAR":4.7154e-5,"MEAN_MOTION_DOT":4.33e-6,"MEAN_MOTION_DDOT":0},{"OBJECT_NAME":"STARLINK-31096","OBJECT_ID":"2023-200D","EPOCH":"2025-10-06T08:11:49.403328","MEAN_MOTION":15.02532356,"ECCENTRICITY":0.0001243,"INCLINATION":43.0038,"RA_OF_ASC_NODE":290.0256,"ARG_OF_PERICENTER":276.9717,"MEAN_ANOMALY":83.0983,"EPHEMERIS_TYPE":0,"CLASSIFICATION_TYPE":"U","NORAD_CAT_ID":58592,"ELEMENT_SET_NO":999,"REV_AT_EPOCH":10036,"BSTAR":2.4959e-5,"MEAN_MOTION_DOT":1.34e-6,"MEAN_MOTION_DDOT":0},{"OBJECT_NAME":"STARLINK-31094","OBJECT_ID":"2023-200E","EPOCH":"2025-10-06T02:04:32.393856","MEAN_MOTION":15.02530899,"ECCENTRICITY":0.0001083,"INCLINATION":43.0037,"RA_OF_ASC_NODE":290.6979,"ARG_OF_PERICENTER":281.2837,"MEAN_ANOMALY":78.7884,"EPHEMERIS_TYPE":0,"CLASSIFICATION_TYPE":"U","NORAD_CAT_ID":58593,"ELEMENT_SET_NO":999,"REV_AT_EPOCH":10033,"BSTAR":0.00011584,"MEAN_MOTION_DOT":1.361e-5,"MEAN_MOTION_DDOT":0},{"OBJECT_NAME":"STARLINK-31075","OBJECT_ID":"2023-200F","EPOCH":"2025-10-06T08:08:13.776576","MEAN_MOTION":15.02560936,"ECCENTRICITY":0.0001991,"INCLINATION":43.0092,"RA_OF_ASC_NODE":289.1445,"ARG_OF_PERICENTER":278.8783,"MEAN_ANOMALY":81.1834,"EPHEMERIS_TYPE":0,"CLASSIFICATION_TYPE":"U","NORAD_CAT_ID":58594,"ELEMENT_SET_NO":999,"REV_AT_EPOCH":10037,"BSTAR":4.0256e-5,"MEAN_MOTION_DOT":3.4e-6,"MEAN_MOTION_DDOT":0},{"OBJECT_NAME":"STARLINK-30857","OBJECT_ID":"2023-200G","EPOCH":"2025-10-06T08:13:03.906912","MEAN_MOTION":15.0253702,"ECCENTRICITY":0.0001333,"INCLINATION":43.0044,"RA_OF_ASC_NODE":289.1779,"ARG_OF_PERICENTER":269.4715,"MEAN_ANOMALY":90.5975,"EPHEMERIS_TYPE":0,"CLASSIFICATION_TYPE":"U","NORAD_CAT_ID":58595,"ELEMENT_SET_NO":999,"REV_AT_EPOCH":10037,"BSTAR":4.3435e-5,"MEAN_MOTION_DOT":3.83e-6,"MEAN_MOTION_DDOT":0},{"OBJECT_NAME":"STARLINK-31059","OBJECT_ID":"2023-200H","EPOCH":"2025-10-06T01:37:34.946112","MEAN_MOTION":15.27569161,"ECCENTRICITY":0.0001422,"INCLINATION":43.003,"RA_OF_ASC_NODE":165.348,"ARG_OF_PERICENTER":273.6208,"MEAN_ANOMALY":86.4481,"EPHEMERIS_TYPE":0,"CLASSIFICATION_TYPE":"U","NORAD_CAT_ID":58596,"ELEMENT_SET_NO":999,"REV_AT_EPOCH":10180,"BSTAR":-9.6275e-5,"MEAN_MOTION_DOT":-2.91e-5,"MEAN_MOTION_DDOT":0}]
